SKYSAT-C1               
1 41601U 16040C   26192.63835800  .00005514  00000+0  15589-3 0  9991
2 41601  96.9557 223.0369 0000645 355.4804   4.6435 15.36708815561620
LAPAN-A3                
1 41603U 16040E   26193.64488681  .00002016  00000+0  65008-4 0  9992
2 41603  97.1503 188.9581 0008298 287.5286  72.5050 15.33267563558712
GAOFEN-3                
1 41727U 16049A   26193.61506252  .00000025  00000+0  20807-4 0  9996
2 41727  98.4017 201.0169 0001791  85.8402 274.2992 14.42218588522317
SKYSAT-C4               
1 41771U 16058B   26193.59115844  .00011647  00000+0  21392-3 0  9996
2 41771  96.9166 214.3113 0003375 121.6663 238.4919 15.49378795549403
SKYSAT-C5               
1 41772U 16058C   26193.34054541  .00004347  00000+0  13571-3 0  9995
2 41772  97.0459 232.8553 0002213 168.5787 191.5507 15.33693860547609
SKYSAT-C2               
1 41773U 16058D   26193.56193376  .00007920  00000+0  18376-3 0  9998
2 41773  97.0160 214.7090 0001848   5.3443 354.7825 15.42640053548966
SKYSAT-C3               
1 41774U 16058E   26193.59355952  .00015730  00000+0  24793-3 0  9990
2 41774  96.8994 223.4792 0002388 135.3695 224.7752 15.53624248550056
ALSAT-1B                
1 41785U 16059C   26193.59036583  .00000282  00000+0  51981-4 0  9995
2 41785  97.7756 201.2577 0010146 137.0823 223.1178 14.72293358524311
PATHFINDER 1            
1 41787U 16059E   26193.56626086  .00000289  00000+0  58639-4 0  9991
2 41787  97.8175 191.6981 0029701 123.7133 236.6910 14.67691277523434
SCATSAT 1               
1 41790U 16059H   26193.16845621  .00000716  00000+0  10064-3 0  9993
2 41790  98.1179 257.1911 0055010 166.2317 194.0409 14.79582698105283
GOKTURK 1A              
1 41875U 16073A   26193.62346470  .00000203  00000+0  48888-4 0  9999
2 41875  98.1225  87.8959 0001440  80.2940 279.8425 14.62792120512540
RESOURCESAT-2A          
1 41877U 16074A   26193.61960885  .00000355  00000+0  18184-3 0  9996
2 41877  98.7524 266.9151 0002561  34.2794 325.8548 14.21609130497919
CARTOSAT-2D             
1 41948U 17008A   26193.64775003  .00002502  00000+0  12184-3 0  9992
2 41948  97.4098 252.4759 0005767 146.2764 213.8838 15.19272252521449
SENTINEL-2B             
1 42063U 17013A   26193.59211791  .00000381  00000+0  16209-3 0  9995
2 42063  98.5689 268.0074 0001230  89.2388 270.8936 14.30815878488272
CARTOSAT-2E             
1 42767U 17036C   26193.59960341  .00002219  00000+0  10855-3 0  9996
2 42767  97.4268 252.9812 0002964 196.5299 163.5839 15.19242568502000
FORMOSAT-5              
1 42920U 17049A   26193.56923678  .00000040  00000+0  21150-4 0  9991
2 42920  98.2247 268.3144 0011509  11.8517 348.2947 14.50907388470359
SENTINEL-5P             
1 42969U 17064A   26193.43583234  .00000003  00000+0  22523-4 0  9991
2 42969  98.7929 135.3883 0001110  92.3746 267.7558 14.19522987453146
SKYSAT-C11              
1 42987U 17068A   26193.41806616  .00017889  00000+0  22940-3 0  9997
2 42987  97.4366 343.3758 0000965 162.5128 197.6162 15.59216138487175
SKYSAT-C10              
1 42988U 17068B   26193.19683330  .00006339  00000+0  18867-3 0  9990
2 42988  97.4527 330.2987 0001407 109.1454 250.9941 15.35077079486197
SKYSAT-C9               
1 42989U 17068C   26192.18672867  .00008274  00000+0  19496-3 0  9991
2 42989  97.4444 330.4450 0008945  57.4451 302.7659 15.42149851486456
SKYSAT-C8               
1 42990U 17068D   26192.86941280  .00006258  00000+0  17273-3 0  9997
2 42990  97.4545 329.8628 0001248 101.2013 258.9372 15.37449279486107
SKYSAT-C7               
1 42991U 17068E   26193.18922727  .00006063  00000+0  16760-3 0  9993
2 42991  97.4554 331.1783 0005961  31.4631 328.6968 15.37404124486210
SKYSAT-C6               
1 42992U 17068F   26192.86656048  .00005678  00000+0  17431-3 0  9995
2 42992  97.4592 330.7193 0005162  97.3545 262.8285 15.34133330486105
CARTOSAT-2F             
1 43111U 18004A   26193.63218205  .00003422  00000+0  16556-3 0  9997
2 43111  97.4783 253.0161 0002463 141.8709 218.2700 15.19261015471196
GAOFEN-1 02             
1 43259U 18031A   26193.64485464  .00000088  00000+0  20059-4 0  9993
2 43259  98.0521 256.0990 0001617 303.2500  56.8554 14.76469087446457
GAOFEN-1 03             
1 43260U 18031B   26193.62293698  .00000343  00000+0  56750-4 0  9990
2 43260  98.0505 255.9329 0002611  22.7396 337.3929 14.76460403446441
GAOFEN-1 04             
1 43262U 18031D   26193.59865450  .00000598  00000+0  93323-4 0  9998
2 43262  98.0522 256.1028 0001427  56.6594 303.4752 14.76469461446431
SENTINEL-3B             
1 43437U 18039A   26193.22606096  .00000035  00000+0  32510-4 0  9996
2 43437  98.6236 260.3977 0001066 119.2246 240.9041 14.26735854427692
GAOFEN-5 01             
1 43461U 18043A   26193.54548278  .00000135  00000+0  37921-4 0  9992
2 43461  98.4588 165.6668 0002247  37.0963 323.0391 14.60622245435390
GAOFEN-6                
1 43484U 18048A   26193.62105433  .00000926  00000+0  14075-3 0  9995
2 43484  98.0965 256.3169 0012162  88.9792 271.2811 14.76384025437140
