OBJECT_NAME,OBJECT_ID,EPOCH,MEAN_MOTION,ECCENTRICITY,INCLINATION,RA_OF_ASC_NODE,ARG_OF_PERICENTER,MEAN_ANOMALY,EPHEMERIS_TYPE,CLASSIFICATION_TYPE,NORAD_CAT_ID,ELEMENT_SET_NO,REV_AT_EPOCH,BSTAR,MEAN_MOTION_DOT,MEAN_MOTION_DDOT
SKYSAT-C1,2016-040C,2026-07-11T15:19:14.131200,15.36708815,.0000645,96.9557,223.0369,355.4804,4.6435,0,U,41601,999,56162,.15588995E-3,.5514E-4,0
LAPAN-A3,2016-040E,2026-07-12T15:28:38.220384,15.33267563,.0008298,97.1503,188.9581,287.5286,72.5050,0,U,41603,999,55871,.65008309E-4,.2016E-4,0
GAOFEN-3,2016-049A,2026-07-12T14:45:41.401728,14.42218588,.00017916,98.4017,201.0169,85.8402,274.2992,0,U,41727,999,52231,.2080745E-4,.25E-6,0
SKYSAT-C4,2016-058B,2026-07-12T14:11:16.089216,15.49378795,.00033753,96.9166,214.3113,121.6663,238.4919,0,U,41771,999,54940,.21392156E-3,.11647E-3,0
SKYSAT-C5,2016-058C,2026-07-12T08:10:23.123424,15.33693860,.00022135,97.0459,232.8553,168.5787,191.5507,0,U,41772,999,54760,.13571155E-3,.4347E-4,0
SKYSAT-C2,2016-058D,2026-07-12T13:29:11.076864,15.42640053,.00018487,97.0160,214.7090,5.3443,354.7825,0,U,41773,999,54896,.18376016E-3,.792E-4,0
SKYSAT-C3,2016-058E,2026-07-12T14:14:43.542528,15.53624248,.00023882,96.8994,223.4792,135.3695,224.7752,0,U,41774,999,55005,.2479275E-3,.1573E-3,0
ALSAT-1B,2016-059C,2026-07-12T14:10:07.607712,14.72293358,.00101462,97.7756,201.2577,137.0823,223.1178,0,U,41785,999,52431,.51981052E-4,.282E-5,0
PATHFINDER 1,2016-059E,2026-07-12T13:35:24.938304,14.67691277,.00297013,97.8175,191.6981,123.7133,236.6910,0,U,41787,999,52343,.58639201E-4,.289E-5,0
SCATSAT 1,2016-059H,2026-07-12T04:02:34.616544,14.79582698,.005501,98.1179,257.1911,166.2317,194.0409,0,U,41790,999,10528,.10064088E-3,.716E-5,0
GOKTURK 1A,2016-073A,2026-07-12T14:57:47.350080,14.62792120,.00014405,98.1225,87.8959,80.2940,279.8425,0,U,41875,999,51254,.48888212E-4,.203E-5,0
RESOURCESAT-2A,2016-074A,2026-07-12T14:52:14.204640,14.21609130,.0002561,98.7524,266.9151,34.2794,325.8548,0,U,41877,999,49791,.18184287E-3,.355E-5,0
CARTOSAT-2D,2017-008A,2026-07-12T15:32:45.602592,15.19272252,.00057679,97.4098,252.4759,146.2764,213.8838,0,U,41948,999,52144,.12183582E-3,.2502E-4,0
SENTINEL-2B,2017-013A,2026-07-12T14:12:38.987424,14.30815878,.00012304,98.5689,268.0074,89.2388,270.8936,0,U,42063,999,48827,.16208999E-3,.381E-5,0
CARTOSAT-2E,2017-036C,2026-07-12T14:23:25.734624,15.19242568,.00029649,97.4268,252.9812,196.5299,163.5839,0,U,42767,999,50200,.10855409E-3,.2219E-4,0
FORMOSAT-5,2017-049A,2026-07-12T13:39:42.057792,14.50907388,.00115093,98.2247,268.3144,11.8517,348.2947,0,U,42920,999,47035,.21150348E-4,.4E-6,0
SENTINEL-5P,2017-064A,2026-07-12T10:27:35.914176,14.19522987,.00011109,98.7929,135.3883,92.3746,267.7558,0,U,42969,999,45314,.22522583E-4,.3E-7,0
SKYSAT-C11,2017-068A,2026-07-12T10:02:00.916224,15.59216138,.00009656,97.4366,343.3758,162.5128,197.6162,0,U,42987,999,48717,.22940119E-3,.17889E-3,0
SKYSAT-C10,2017-068B,2026-07-12T04:43:26.397120,15.35077079,.00014071,97.4527,330.2987,109.1454,250.9941,0,U,42988,999,48619,.18867032E-3,.6339E-4,0
SKYSAT-C9,2017-068C,2026-07-11T04:28:53.357088,15.42149851,.00089454,97.4444,330.4450,57.4451,302.7659,0,U,42989,999,48645,.19496411E-3,.8274E-4,0
SKYSAT-C8,2017-068D,2026-07-11T20:51:57.265920,15.37449279,.00012484,97.4545,329.8628,101.2013,258.9372,0,U,42990,999,48610,.17273211E-3,.6258E-4,0
SKYSAT-C7,2017-068E,2026-07-12T04:32:29.236128,15.37404124,.0005961,97.4554,331.1783,31.4631,328.6968,0,U,42991,999,48621,.16759645E-3,.6063E-4,0
SKYSAT-C6,2017-068F,2026-07-11T20:47:50.825472,15.34133330,.00051622,97.4592,330.7193,97.3545,262.8285,0,U,42992,999,48610,.17430622E-3,.5678E-4,0
CARTOSAT-2F,2018-004A,2026-07-12T15:10:20.529120,15.19261015,.00024636,97.4783,253.0161,141.8709,218.2700,0,U,43111,999,47119,.1655595E-3,.3422E-4,0
GAOFEN-1 02,2018-031A,2026-07-12T15:28:35.440896,14.76469087,.00016172,98.0521,256.0990,303.2500,56.8554,0,U,43259,999,44645,.20059096E-4,.88E-6,0
GAOFEN-1 03,2018-031B,2026-07-12T14:57:01.755072,14.76460403,.00026115,98.0505,255.9329,22.7396,337.3929,0,U,43260,999,44644,.56750441E-4,.343E-5,0
GAOFEN-1 04,2018-031D,2026-07-12T14:22:03.748800,14.76469461,.00014274,98.0522,256.1028,56.6594,303.4752,0,U,43262,999,44643,.93322786E-4,.598E-5,0
SENTINEL-3B,2018-039A,2026-07-12T05:25:31.666944,14.26735854,.0001066,98.6236,260.3977,119.2246,240.9041,0,U,43437,999,42769,.3251E-4,.35E-6,0
GAOFEN-5 01,2018-043A,2026-07-12T13:05:29.712192,14.60622245,.0002247,98.4588,165.6668,37.0963,323.0391,0,U,43461,999,43539,.37920702E-4,.135E-5,0
GAOFEN-6,2018-048A,2026-07-12T14:54:19.094112,14.76384025,.00121627,98.0965,256.3169,88.9792,271.2811,0,U,43484,999,43714,.14075146E-3,.926E-5,0
